[{"OBJECT_NAME":"STARLINK-11407 [DTC]","OBJECT_ID":"2024-209A","EPOCH":"2026-03-09T06:15:55.761984","MEAN_MOTION":15.69762357,"ECCENTRICITY":0.00014258,"INCLINATION":53.1568,"RA_OF_ASC_NODE":13.151,"ARG_OF_PERICENTER":72.2326,"MEAN_ANOMALY":287.8848,"EPHEMERIS_TYPE":0,"CLASSIFICATION_TYPE":"U","NORAD_CAT_ID":61939,"ELEMENT_SET_NO":999,"REV_AT_EPOCH":7667,"BSTAR":0.0019394396,"MEAN_MOTION_DOT":0.00241873,"MEAN_MOTION_DDOT":0},{"OBJECT_NAME":"FENGYUN 1C DEB","OBJECT_ID":"1999-025CUE","EPOCH":"2026-02-18T09:12:07.487136","MEAN_MOTION":15.64460458,"ECCENTRICITY":0.00384301,"INCLINATION":98.1181,"RA_OF_ASC_NODE":202.4936,"ARG_OF_PERICENTER":104.8925,"MEAN_ANOMALY":255.6593,"EPHEMERIS_TYPE":0,"CLASSIFICATION_TYPE":"U","NORAD_CAT_ID":32184,"ELEMENT_SET_NO":999,"REV_AT_EPOCH":99453,"BSTAR":0.002023567,"MEAN_MOTION_DOT":0.00206139,"MEAN_MOTION_DDOT":0}]
